{
    "links": {
        "self": "http://www.neowsapp.com/rest/v1/neo/3699891?api_key=iIulBulltgU6a56xZRHN4H3l9WmuAYTsLGpBGhQ2"
    },
    "id": "3699891",
    "neo_reference_id": "3699891",
    "name": "(2014 WY365)",
    "designation": "2014 WY365",
    "nasa_jpl_url": "http://ssd.jpl.nasa.gov/sbdb.cgi?sstr=3699891",
    "absolute_magnitude_h": 25.7,
    "estimated_diameter": {
        "kilometers": {
            "estimated_diameter_min": 0.0192555078,
            "estimated_diameter_max": 0.0430566244
        },
        "meters": {
            "estimated_diameter_min": 19.2555078188,
            "estimated_diameter_max": 43.0566244241
        },
        "miles": {
            "estimated_diameter_min": 0.0119648141,
            "estimated_diameter_max": 0.0267541378
        },
        "feet": {
            "estimated_diameter_min": 63.1742402722,
            "estimated_diameter_max": 141.2618956756
        }
    },
    "is_potentially_hazardous_asteroid": false,
    "close_approach_data": [
        {
            "close_approach_date": "2014-12-06",
            "close_approach_date_full": "2014-Dec-06 16:38",
            "epoch_date_close_approach": 1417883880000,
            "relative_velocity": {
                "kilometers_per_second": "8.7183373841",
                "kilometers_per_hour": "31386.014582905",
                "miles_per_hour": "19502.0488945834"
            },
            "miss_distance": {
                "astronomical": "0.0226094354",
                "lunar": "8.7950703706",
                "kilometers": "3382323.377742598",
                "miles": "2101678.2908119324"
            },
            "orbiting_body": "Earth"
        }
    ],
    "orbital_data": {
        "orbit_id": "5",
        "orbit_determination_date": "2017-04-06 08:37:03",
        "first_observation_date": "2014-11-28",
        "last_observation_date": "2014-12-06",
        "data_arc_in_days": 8,
        "observations_used": 38,
        "orbit_uncertainty": "7",
        "minimum_orbit_intersection": ".0208587",
        "jupiter_tisserand_invariant": "3.631",
        "epoch_osculation": "2459000.5",
        "eccentricity": ".5251224552549454",
        "semi_major_axis": "2.020612572601682",
        "inclination": "5.24156707748867",
        "ascending_node_longitude": "63.44872632675776",
        "orbital_period": "1049.11477469419",
        "perihelion_distance": ".9595435373580754",
        "perihelion_argument": "37.88068072407641",
        "aphelion_distance": "3.081681607845289",
        "perihelion_time": "2459119.774826483066",
        "mean_anomaly": "319.0712679206905",
        "mean_motion": ".343146439916393",
        "equinox": "J2000",
        "orbit_class": {
            "orbit_class_type": "APO",
            "orbit_class_description": "Near-Earth asteroid orbits which cross the Earth’s orbit similar to that of 1862 Apollo",
            "orbit_class_range": "a (semi-major axis) > 1.0 AU; q (perihelion) < 1.017 AU"
        }
    },
    "is_sentry_object": false
}